ORBCOMM FM103 [+]       
1 40091U 14040F   23320.03803647  .00000821  00000+0  22221-3 0  9996
2 40091  47.0059 228.1116 0001481 157.2011 202.8940 14.56063972496707
ORBCOMM FM114 [+]       
1 41179U 15081A   23319.79867090  .00001042  00000+0  27182-3 0  9990
2 41179  47.0011 138.5824 0002200 212.4437 147.6313 14.56067029419970
ORBCOMM FM119 [-]       
1 41180U 15081B   23319.97211381  .00000904  00000+0  24084-3 0  9992
2 41180  47.0017  46.9568 0002258 270.7805  89.2821 14.56059391421256
ORBCOMM FM105 [-]       
1 41181U 15081C   23319.85550353  .00000387  00000+0  15758-3 0  9998
2 41181  47.0031 358.4374 0002700 252.7619 107.2965 14.44102981416989
ORBCOMM FM110 [+]       
1 41182U 15081D   23319.77566207  .00000931  00000+0  24689-3 0  9993
2 41182  47.0000 138.1135 0001208  33.5698 326.5263 14.56066504419846
ORBCOMM FM118 [+]       
1 41183U 15081E   23319.61560146  .00000777  00000+0  21222-3 0  9991
2 41183  47.0019 139.1362 0001401  28.5084 331.5877 14.56063442419922
ORBCOMM FM112 [+]       
1 41184U 15081F   23318.98946539  .00001162  00000+0  29882-3 0  9994
2 41184  47.0000  50.8346 0002324 254.7569 105.3059 14.56043219421056
ORBCOMM FM113 [+]       
1 41185U 15081G   23319.92633702  .00001126  00000+0  29077-3 0  9991
2 41185  47.0021  46.6508 0001954 272.5330  87.5331 14.56038679421244
